STARLINK-2643
1 28367C 21038Q   21325.10903034  .00023069  00000-0  15464-2 0  3250
2 28367  53.0546 197.7390 0002011  77.0761 128.3359 15.06355964    17
